#dP2023 11 16  0  0  0.00000000      96 __u+U IGS20 EXT  IAC
## 2288 345600.00000000   900.00000000 60264 0.0000000000000
+  117   C06C07C08C09C10C11C12C13C14C16C19C20C21C22C23C24C25
+        C26C27C28C29C30C32C33C34C35C36C37C38C39C40C41C42C43
+        C44C45C46E02E03E04E07E08E09E10E11E12E13E15E19E21E24
+        E25E26E27E30E31E33E34E36G01G02G03G04G05G06G07G08G09
+        G10G11G12G13G14G15G16G17G18G19G20G21G22G23G24G25G26
+        G27G28G29G30G31G32J02J03J04R01R02R03R04R05R07R08R09
+        R11R12R13R14R15R16R17R18R19R20R21R22R24R25R26  0  0
++        10 11 10  9 10  8  7 10  9  9  9  8  8  7  9  8  8
++         9  9  9  8  8  9  8  9  7  7  9  8 10 10  8  8  8
++         9 10  9  6  7  8  8  7  8  7  8  6  7  7  7  8  7
++         8  9  8  8  7  7  8  8  7  6  7  6  7  7  7  7  7
++         7  7  7  7  7  6  8  6  6  7  7  6  7  8  8  7  8
++         7  7  7  7  7  7 10 10 11  9  7  6  7  7  7  9  8
++         7  8 10  7  8  6  7  7  9  8  8  7  7  5  9  0  0
%c M  cc GPS ccc cccc cccc cccc cccc ccccc ccccc ccccc ccccc
%c cc cc ccc ccc cccc cccc cccc cccc ccccc ccccc ccccc ccccc
%f  0.0000000  0.000000000  0.00000000000  0.000000000000000
%f  0.0000000  0.000000000  0.00000000000  0.000000000000000
%i    0    0    0    0      0      0      0      0         0
%i    0    0    0    0      0      0      0      0         0
/* IAC                                ULTRA-RAPID PREDICTION
/* S/V CLOCKS ARE ALIGNED TO GNSS TIME                      
/* G:C1WC2W R:C1PC2P E:C1XC5X C:C2IC6I J:C1CC2S             
/* PCV:IGS20_2287 OL/AL:FES2004  NONE     YN ORB:CoN CLK:CoN
*  2023 11 16 17  0  0.00000000
PC06  -2134.026061  28063.807365 -31274.486761     26.153042
PC07 -17080.148921  30925.904085  22975.871146   -328.278753
PC08  -9253.108585  40922.468701   5268.758903    236.806208
PC09   6577.220147  31925.389360 -26006.581487    -97.118685
PC10  -7543.133159  30815.549827  27890.312573    -19.348916
PC11  24289.651851   1849.180808 -13556.631389    259.198846
PC12  23616.023473  14276.904696   4234.019442    857.014429
PC13  -5056.842273  42019.839129   -290.617499    383.463894
PC14  24356.428587  -9539.309268  -9784.500295    796.247725
PC16  -5317.067700  25617.899261 -32760.288081   -178.615939
PC19 -22840.324934  16003.287887    760.945895   -968.370953
PC20 -22582.737147   2933.720923  16118.882773    111.334752
PC21   8592.185850  13106.084611 -23082.568483   -969.543476
PC22  -9953.028438  20607.297210 -15967.901275   -222.829774
PC23   3274.701057 -26419.559786   8350.842530   -820.397602
PC24  16202.846519   8403.305065  21100.070318    602.398419
PC25  13031.590371 -13807.487306  20431.593079    257.071016
PC26  10238.820826  24041.426589   9827.633720   -207.071141
PC27 -18169.241059 -17488.489558 -11972.629642    229.002397
PC28  -1294.549680 -17345.650918 -21811.811828    172.833356
PC29 -18952.033431   6869.716908  19295.692232    202.198990
PC30 -26508.548366  -7670.114585   4213.685057     -8.455117
PC32  -8572.967260 -13148.601373  23081.165263   -535.285353
PC33  22780.733937 -16104.016644   -854.849151   -944.754512
PC34  26508.892511   6628.873178  -5626.665148    304.749524
PC35   1992.794087  17372.342879  21733.514636    501.507834
PC36 -13679.103006  12640.432661 -20767.306391   -131.807472
PC37  -9323.046826 -24605.052883  -9245.346252   -888.895704
PC38 -13096.315290  38026.244233  13008.065554    118.121279
PC39  -8634.657805  23201.659290 -34076.171701     -5.681768
PC40 -24215.516813  25130.768225  23506.450619    -44.218972
PC41  10552.487408 -20759.624967  15425.582576   -871.385474
PC42  21971.364267  -1671.418012 -17098.361121   -498.109876
PC43  19675.173692  -6298.329780 -18757.239320     48.518381
PC44  18634.030354  16887.764655  12058.609080    294.691212
PC45  -2897.412975  26634.756693  -7865.071827    -46.653091
PC46 -16207.821626  -7084.740325 -21581.649262   -100.235079
PE02  15752.650005   5948.841746  24341.244826     78.953889
PE03  27260.460341   5572.272176 -10118.626652    -73.891728
PE04 -27370.128203   7470.013950  -8449.726637   -258.913072
PE07  11803.725891 -16039.610492  21897.813985    -88.128807
PE08  27613.250576  -7098.778240   7959.476978   -177.959086
PE09 -11931.214207  15895.281420 -21938.143257   -229.920289
PE10  -9911.481478  13481.573988  24417.139668   -579.335568
PE11  -1456.464923  21624.991305  20152.695749   3209.088407
PE12 -16142.183216   4195.706124  24457.254004   -779.673966
PE13   1979.149147 -21148.295307 -20606.338826    -19.606186
PE15  16334.191803  -3659.466988 -24401.806917    -69.581942
PE19 -25991.112267  -7140.324606  12241.168504  -1202.594410
PE21  -3032.143329 -22607.089149 -18860.925136   -564.457702
PE24 -12512.264952  26791.644574   1632.488059   -435.056639
PE25   2728.353782  22850.422462  18628.462827     -3.337285
PE26 -13704.114282 -25904.020851  -4122.884132    282.751421
PE27  12084.728069 -26927.450482  -2138.892846   -201.425265
PE30  20013.602819 -14939.694813  15866.582940   -667.153659
PE31 -19903.148944  15350.157060 -15633.737123    -10.128921
PE33 -20856.051718 -16192.230122  13374.093080      2.466000
PE34  20946.406922  15679.256497 -13855.620971    -78.290224
PE36  13298.418994  26000.594764   4834.479277   -144.892989
PG01 -18558.480525 -10007.352641  16016.249619    163.204416
PG02 -20306.758583 -13233.298203  11596.571575   -528.138014
PG03 -16199.945199   1067.185102  20850.274401    -10.024922
PG04 -26499.042034  -1193.051079   2370.541540    214.582607
PG05  10113.195760  12823.434115 -21108.158210   -150.615812
PG06   3396.731366  22406.512460  13842.782542    504.287329
PG07 -12882.615569   8106.157180 -21290.762142     11.853681
PG08 -23575.100065  -6009.132417 -11217.087668   -152.403178
PG09 -24271.533963   7467.941462  -7975.630077     -1.111447
PG10  10425.408489 -24122.326157   2484.756771    -61.631277
PG11  11621.781055  23762.184150   2716.120564   -462.698810
PG12  15933.016046   1631.354713  20899.363314   -447.655549
PG13  15630.507794  13229.832409 -17232.649238    595.941967
PG14 -13351.939217  22822.825354  -1087.202019    245.003100
PG15  24165.363487   3584.152304 -11170.284872     97.744401
PG16  -4603.977810 -17852.271009 -19263.936513   -420.982567
PG17 -13379.882642  13077.576762  19339.277471    723.178183
PG18  11343.283309  -9872.633008 -21869.035909   -480.857180
PG19  -3523.096673  14648.183031  21655.726173    399.766543
PG20   2970.702294  22794.200665 -13415.529303    401.321944
PG21 -20159.893412 -16134.146677   8529.536272    144.105777
PG22  -9611.115252  24100.448111   6793.289204     82.780633
PG23  16202.563557 -18379.991298 -10001.998820     99.972159
PG24  20514.793128  12730.283543  11129.483760   -372.675699
PG25  17866.873426 -11810.698945  15206.120549    477.656701
PG26    774.605988 -23812.202270 -11488.222033    216.214330
PG27 -12478.341690 -13068.535069 -19862.316011    -70.785945
PG28  -2302.085355 -21719.425659  15089.448007    -47.600509
PG29  25032.131814  -4677.316663  -7775.291845   -610.201244
PG30  -5073.299427  17811.071593 -18824.469691   -467.587386
PG31  -8465.858179 -23751.330539   7434.871695   -225.796008
PG32   8491.615885 -14853.273600  20444.190203   -586.426938
PJ02 -26491.743187  32064.300755  -2024.621366     -0.190865
PJ03 -25906.772817  22710.443083  29464.046318     -8.460127
PJ04 -33721.564379  24877.602508    149.194623     72.487828
PR01 -18146.782716   -288.380547  17917.930692     69.970873
PR02 -23480.784589   9820.199281   2253.198120    -22.338704
PR03 -15013.078301  14732.246654 -14439.287667     89.148759
PR04   1288.647733  11132.612141 -22892.641434    211.342467
PR05  16972.873428   1790.901222 -18938.149324    122.308477
PR07  14199.909245 -14727.259694  15231.292063     69.249392
PR08  -1707.354227 -11139.815864  22933.510154    -73.295538
PR09  10895.057034  -9417.687296  21090.414380    153.570358
PR11  -1809.210465 -24454.873751  -7044.871851   -213.626531
PR12  -9430.821758 -10573.859077 -21184.525013     33.496139
PR13 -10984.476597   6850.916705 -21995.448263    -41.366157
PR14  -5848.503926  23124.378681  -9008.427549     25.555627
PR15   2342.631108  23970.042505   8416.487945     84.722729
PR16   9298.133656  10795.048156  21157.155748     20.672901
PR17  -2854.877284  10777.147408  22961.490761     35.438672
PR18  12109.918949  16818.618712  14862.273997    112.262294
PR19  20180.610265  15597.748399    630.564362   -254.887488
PR20  17507.474871   3073.755258 -18263.666421   -103.637529
PR21   2295.380663 -11037.038467 -22870.737169    -53.882800
PR22 -12301.635552 -17509.374969 -13859.763523     93.821227
PR24 -17507.787907  -1620.846796  18494.545355    -32.391840
PR25   3528.605800 -10856.023294 -22799.068788     -5.446676
PR26  -1074.570576 -11397.774092  22811.576932    -16.458079
EOF
